[{"OBJECT_NAME":"DONGPO 10","OBJECT_ID":"2022-167H","EPOCH":"2026-03-09T22:44:56.137344","MEAN_MOTION":15.322785,"ECCENTRICITY":0.00061655,"INCLINATION":97.685,"RA_OF_ASC_NODE":235.0962,"ARG_OF_PERICENTER":106.9526,"MEAN_ANOMALY":253.2392,"EPHEMERIS_TYPE":0,"CLASSIFICATION_TYPE":"U","NORAD_CAT_ID":54689,"ELEMENT_SET_NO":999,"REV_AT_EPOCH":18015,"BSTAR":0.00049390523,"MEAN_MOTION_DOT":0.00015333,"MEAN_MOTION_DDOT":0},{"OBJECT_NAME":"STARLINK-35607","OBJECT_ID":"2025-240T","EPOCH":"2026-03-09T23:17:18.774816","MEAN_MOTION":15.30218057,"ECCENTRICITY":0.00016757,"INCLINATION":53.1612,"RA_OF_ASC_NODE":61.3393,"ARG_OF_PERICENTER":82.8478,"MEAN_ANOMALY":277.2714,"EPHEMERIS_TYPE":0,"CLASSIFICATION_TYPE":"U","NORAD_CAT_ID":66163,"ELEMENT_SET_NO":999,"REV_AT_EPOCH":2203,"BSTAR":0.0011917473,"MEAN_MOTION_DOT":0.00035124,"MEAN_MOTION_DDOT":0}]
